[{"OBJECT_NAME":"ORBCOMM FM105","OBJECT_ID":"2015-081C","EPOCH":"2026-03-03T05:51:52.223616","MEAN_MOTION":14.45487326,"ECCENTRICITY":0.00013057,"INCLINATION":47.0008,"RA_OF_ASC_NODE":82.5406,"ARG_OF_PERICENTER":7.6324,"MEAN_ANOMALY":352.4576,"EPHEMERIS_TYPE":0,"CLASSIFICATION_TYPE":"U","NORAD_CAT_ID":41181,"ELEMENT_SET_NO":999,"REV_AT_EPOCH":53822,"BSTAR":0.00013973609,"MEAN_MOTION_DOT":3.39e-6,"MEAN_MOTION_DDOT":0},{"OBJECT_NAME":"ORBCOMM FM110","OBJECT_ID":"2015-081D","EPOCH":"2026-03-03T13:28:58.114272","MEAN_MOTION":14.58720495,"ECCENTRICITY":0.0003548,"INCLINATION":47.0014,"RA_OF_ASC_NODE":140.8129,"ARG_OF_PERICENTER":295.0481,"MEAN_ANOMALY":65.0036,"EPHEMERIS_TYPE":0,"CLASSIFICATION_TYPE":"U","NORAD_CAT_ID":41182,"ELEMENT_SET_NO":999,"REV_AT_EPOCH":54220,"BSTAR":0.00030825,"MEAN_MOTION_DOT":1.282e-5,"MEAN_MOTION_DDOT":0},{"OBJECT_NAME":"ORBCOMM FM118","OBJECT_ID":"2015-081E","EPOCH":"2026-03-03T14:18:45.567936","MEAN_MOTION":14.58716363,"ECCENTRICITY":0.0003884,"INCLINATION":47.0033,"RA_OF_ASC_NODE":140.9629,"ARG_OF_PERICENTER":264.109,"MEAN_ANOMALY":95.9353,"EPHEMERIS_TYPE":0,"CLASSIFICATION_TYPE":"U","NORAD_CAT_ID":41183,"ELEMENT_SET_NO":999,"REV_AT_EPOCH":54231,"BSTAR":0.00029689,"MEAN_MOTION_DOT":1.228e-5,"MEAN_MOTION_DDOT":0},{"OBJECT_NAME":"ORBCOMM FM112","OBJECT_ID":"2015-081F","EPOCH":"2026-03-03T07:48:30.284928","MEAN_MOTION":14.5871657,"ECCENTRICITY":0.00010178,"INCLINATION":46.9996,"RA_OF_ASC_NODE":50.7461,"ARG_OF_PERICENTER":48.6959,"MEAN_ANOMALY":311.4014,"EPHEMERIS_TYPE":0,"CLASSIFICATION_TYPE":"U","NORAD_CAT_ID":41184,"ELEMENT_SET_NO":999,"REV_AT_EPOCH":54349,"BSTAR":0.0002385114,"MEAN_MOTION_DOT":9.53e-6,"MEAN_MOTION_DDOT":0},{"OBJECT_NAME":"ORBCOMM FM113","OBJECT_ID":"2015-081G","EPOCH":"2026-03-03T08:54:19.488096","MEAN_MOTION":14.58717779,"ECCENTRICITY":5.927e-5,"INCLINATION":47.0012,"RA_OF_ASC_NODE":50.8971,"ARG_OF_PERICENTER":57.1173,"MEAN_ANOMALY":302.977,"EPHEMERIS_TYPE":0,"CLASSIFICATION_TYPE":"U","NORAD_CAT_ID":41185,"ELEMENT_SET_NO":999,"REV_AT_EPOCH":54348,"BSTAR":0.00022988597,"MEAN_MOTION_DOT":9.13e-6,"MEAN_MOTION_DDOT":0},{"OBJECT_NAME":"ORBCOMM FM115","OBJECT_ID":"2015-081H","EPOCH":"2026-03-03T16:04:37.524000","MEAN_MOTION":14.63105979,"ECCENTRICITY":0.000116,"INCLINATION":46.9973,"RA_OF_ASC_NODE":244.9013,"ARG_OF_PERICENTER":205.8214,"MEAN_ANOMALY":154.2615,"EPHEMERIS_TYPE":0,"CLASSIFICATION_TYPE":"U","NORAD_CAT_ID":41186,"ELEMENT_SET_NO":999,"REV_AT_EPOCH":54576,"BSTAR":0.00024,"MEAN_MOTION_DOT":1.069e-5,"MEAN_MOTION_DDOT":0},{"OBJECT_NAME":"ORBCOMM FM108","OBJECT_ID":"2015-081J","EPOCH":"2026-03-03T16:13:42.043584","MEAN_MOTION":14.58730739,"ECCENTRICITY":0.0002201,"INCLINATION":47.0059,"RA_OF_ASC_NODE":320.9947,"ARG_OF_PERICENTER":59.3085,"MEAN_ANOMALY":300.8017,"EPHEMERIS_TYPE":0,"CLASSIFICATION_TYPE":"U","NORAD_CAT_ID":41187,"ELEMENT_SET_NO":999,"REV_AT_EPOCH":54467,"BSTAR":0.0003119,"MEAN_MOTION_DOT":1.299e-5,"MEAN_MOTION_DDOT":0},{"OBJECT_NAME":"ORBCOMM FM117","OBJECT_ID":"2015-081K","EPOCH":"2026-03-03T02:15:00.449280","MEAN_MOTION":14.58720328,"ECCENTRICITY":0.00025426,"INCLINATION":47.0023,"RA_OF_ASC_NODE":322.4166,"ARG_OF_PERICENTER":66.8447,"MEAN_ANOMALY":293.2706,"EPHEMERIS_TYPE":0,"CLASSIFICATION_TYPE":"U","NORAD_CAT_ID":41188,"ELEMENT_SET_NO":999,"REV_AT_EPOCH":54463,"BSTAR":0.00027115704,"MEAN_MOTION_DOT":1.107e-5,"MEAN_MOTION_DDOT":0},{"OBJECT_NAME":"ORBCOMM FM116","OBJECT_ID":"2015-081L","EPOCH":"2026-03-03T03:25:57.068832","MEAN_MOTION":14.58710608,"ECCENTRICITY":0.00026912,"INCLINATION":47.0028,"RA_OF_ASC_NODE":51.9647,"ARG_OF_PERICENTER":289.7792,"MEAN_ANOMALY":70.2803,"EPHEMERIS_TYPE":0,"CLASSIFICATION_TYPE":"U","NORAD_CAT_ID":41189,"ELEMENT_SET_NO":999,"REV_AT_EPOCH":54345,"BSTAR":0.00023956188,"MEAN_MOTION_DOT":9.58e-6,"MEAN_MOTION_DDOT":0}]
